{
    "type": "FeatureCollection",
    "features": [
        {
            "type": "Feature",
            "geometry": {
                "type": "Polygon",
                "coordinates": [
                    [
                        [
                            21.01311,
                            49.12416
                        ],
                        [
                            20.97298,
                            49.1946
                        ],
                        [
                            20.92912,
                            49.23084
                        ],
                        [
                            20.8591,
                            49.2774
                        ],
                        [
                            20.69996,
                            49.16262
                        ],
                        [
                            20.6655,
                            49.0554
                        ],
                        [
                            20.7865,
                            49.0423
                        ],
                        [
                            21.01311,
                            49.12416
                        ]
                    ]
                ]
            },
            "properties": {
                "name": "Study Area of 48. VS TOP 2024",
                "location": "Levočské vrchy and surroundings",
                "central_village": "Tichý Potok"
            }
        },
        {
            "type": "Feature",
            "geometry": {
                "type": "Polygon",
                "coordinates": [
                    [
                        [
                            22.113656,
                            49.128911
                        ],
                        [
                            21.886312,
                            49.368847
                        ],
                        [
                            21.701594,
                            49.416546
                        ],
                        [
                            21.605628,
                            49.437117
                        ],
                        [
                            21.576284,
                            49.428457
                        ],
                        [
                            21.554902,
                            49.415558
                        ],
                        [
                            21.553672,
                            49.415327
                        ],
                        [
                            21.549291,
                            49.417257
                        ],
                        [
                            21.545245,
                            49.41612
                        ],
                        [
                            21.5354,
                            49.39901
                        ],
                        [
                            21.697098,
                            49.279857
                        ],
                        [
                            22.084704,
                            49.131189
                        ],
                        [
                            22.113656,
                            49.128911
                        ]
                    ]
                ]
            },
            "properties": {
                "name": "Study Area of 49. VS TOP 2025",
                "location": "Laborecká and Ondavská vrchovina",
                "central_village": "Medvedie",
                "visibility": false
            }
        },
        {
            "type": "Feature",
            "geometry": {
                "type": "Polygon",
                "coordinates": [
                    [
                        [
                            21.513107,
                            49.418861
                        ],
                        [
                            21.496528,
                            49.418861
                        ],
                        [
                            21.49418,
                            49.408824
                        ],
                        [
                            21.502781,
                            49.389876
                        ],
                        [
                            21.519777,
                            49.355463
                        ],
                        [
                            21.587485,
                            49.325978
                        ],
                        [
                            21.652266,
                            49.288401
                        ],
                        [
                            21.711376,
                            49.258298
                        ],
                        [
                            21.79523,
                            49.219854
                        ],
                        [
                            21.868634,
                            49.198806
                        ],
                        [
                            21.91267,
                            49.182312
                        ],
                        [
                            21.982763,
                            49.157493
                        ],
                        [
                            22.031697,
                            49.138289
                        ],
                        [
                            22.114129,
                            49.125278
                        ],
                        [
                            22.109474,
                            49.139341
                        ],
                        [
                            22.084554,
                            49.191932
                        ],
                        [
                            22.057293,
                            49.213354
                        ],
                        [
                            22.029834,
                            49.225817
                        ],
                        [
                            22.033046,
                            49.239728
                        ],
                        [
                            22.03485,
                            49.256419
                        ],
                        [
                            22.028378,
                            49.261441
                        ],
                        [
                            22.031325,
                            49.272872
                        ],
                        [
                            22.020952,
                            49.284488
                        ],
                        [
                            22.002321,
                            49.296293
                        ],
                        [
                            21.979069,
                            49.311661
                        ],
                        [
                            21.960099,
                            49.349047
                        ],
                        [
                            21.952581,
                            49.347629
                        ],
                        [
                            21.938491,
                            49.344094
                        ],
                        [
                            21.919162,
                            49.35118
                        ],
                        [
                            21.902299,
                            49.345506
                        ],
                        [
                            21.894003,
                            49.355463
                        ],
                        [
                            21.878989,
                            49.369919
                        ],
                        [
                            21.863942,
                            49.364828
                        ],
                        [
                            21.849657,
                            49.372111
                        ],
                        [
                            21.839685,
                            49.389876
                        ],
                        [
                            21.828227,
                            49.389127
                        ],
                        [
                            21.810552,
                            49.378725
                        ],
                        [
                            21.793974,
                            49.369919
                        ],
                        [
                            21.791268,
                            49.352605
                        ],
                        [
                            21.776071,
                            49.35618
                        ],
                        [
                            21.758295,
                            49.378725
                        ],
                        [
                            21.743974,
                            49.389876
                        ],
                        [
                            21.727819,
                            49.398156
                        ],
                        [
                            21.719709,
                            49.411129
                        ],
                        [
                            21.702853,
                            49.414212
                        ],
                        [
                            21.681194,
                            49.408824
                        ],
                        [
                            21.656813,
                            49.416533
                        ],
                        [
                            21.631969,
                            49.444122
                        ],
                        [
                            21.617103,
                            49.444122
                        ],
                        [
                            21.601827,
                            49.435348
                        ],
                        [
                            21.569812,
                            49.437731
                        ],
                        [
                            21.556654,
                            49.434555
                        ],
                        [
                            21.539269,
                            49.432972
                        ],
                        [
                            21.525868,
                            49.422755
                        ],
                        [
                            21.513107,
                            49.418861
                        ]
                    ]
                ]
            },
            "properties": {}
        },
        {
            "type": "Feature",
            "geometry": {
                "type": "Polygon",
                "coordinates": [
                    [
                        [
                            20.660104,
                            49.057861
                        ],
                        [
                            20.663471,
                            49.051683
                        ],
                        [
                            20.668185,
                            49.046828
                        ],
                        [
                            20.699836,
                            49.037999
                        ],
                        [
                            20.780647,
                            49.034026
                        ],
                        [
                            20.837214,
                            49.037116
                        ],
                        [
                            20.887047,
                            49.046828
                        ],
                        [
                            20.936207,
                            49.065804
                        ],
                        [
                            20.975266,
                            49.086978
                        ],
                        [
                            21.014998,
                            49.110788
                        ],
                        [
                            21.013651,
                            49.13679
                        ],
                        [
                            21.008263,
                            49.1663
                        ],
                        [
                            20.984694,
                            49.201514
                        ],
                        [
                            20.947655,
                            49.22439
                        ],
                        [
                            20.928126,
                            49.241539
                        ],
                        [
                            20.889741,
                            49.267033
                        ],
                        [
                            20.860784,
                            49.286364
                        ],
                        [
                            20.839234,
                            49.290317
                        ],
                        [
                            20.811624,
                            49.28285
                        ],
                        [
                            20.795462,
                            49.272306
                        ],
                        [
                            20.782667,
                            49.257804
                        ],
                        [
                            20.765831,
                            49.232306
                        ],
                        [
                            20.73418,
                            49.198434
                        ],
                        [
                            20.689061,
                            49.170263
                        ],
                        [
                            20.668858,
                            49.151767
                        ],
                        [
                            20.65539,
                            49.135908
                        ],
                        [
                            20.646636,
                            49.122689
                        ],
                        [
                            20.641922,
                            49.102853
                        ],
                        [
                            20.644615,
                            49.081685
                        ],
                        [
                            20.660104,
                            49.057861
                        ]
                    ]
                ]
            },
            "properties": {
                "visibility": false
            }
        }
    ]
}