{
    "type": "FeatureCollection",
    "features": [
        {
            "type": "Feature",
            "geometry": {
                "type": "Polygon",
                "coordinates": [
                    [
                        [
                            21.513107,
                            49.418861
                        ],
                        [
                            21.496528,
                            49.418861
                        ],
                        [
                            21.49418,
                            49.408824
                        ],
                        [
                            21.502781,
                            49.389876
                        ],
                        [
                            21.519777,
                            49.355463
                        ],
                        [
                            21.587485,
                            49.325978
                        ],
                        [
                            21.652266,
                            49.288401
                        ],
                        [
                            21.711376,
                            49.258298
                        ],
                        [
                            21.79523,
                            49.219854
                        ],
                        [
                            21.868634,
                            49.198806
                        ],
                        [
                            21.91267,
                            49.182312
                        ],
                        [
                            21.982763,
                            49.157493
                        ],
                        [
                            22.031697,
                            49.138289
                        ],
                        [
                            22.114129,
                            49.125278
                        ],
                        [
                            22.109474,
                            49.139341
                        ],
                        [
                            22.084554,
                            49.191932
                        ],
                        [
                            22.057293,
                            49.213354
                        ],
                        [
                            22.029834,
                            49.225817
                        ],
                        [
                            22.033046,
                            49.239728
                        ],
                        [
                            22.03485,
                            49.256419
                        ],
                        [
                            22.028378,
                            49.261441
                        ],
                        [
                            22.031325,
                            49.272872
                        ],
                        [
                            22.020952,
                            49.284488
                        ],
                        [
                            22.002321,
                            49.296293
                        ],
                        [
                            21.979069,
                            49.311661
                        ],
                        [
                            21.960099,
                            49.349047
                        ],
                        [
                            21.952581,
                            49.347629
                        ],
                        [
                            21.938491,
                            49.344094
                        ],
                        [
                            21.919162,
                            49.35118
                        ],
                        [
                            21.902299,
                            49.345506
                        ],
                        [
                            21.894003,
                            49.355463
                        ],
                        [
                            21.878989,
                            49.369919
                        ],
                        [
                            21.863942,
                            49.364828
                        ],
                        [
                            21.849657,
                            49.372111
                        ],
                        [
                            21.839685,
                            49.389876
                        ],
                        [
                            21.828227,
                            49.389127
                        ],
                        [
                            21.810552,
                            49.378725
                        ],
                        [
                            21.793974,
                            49.369919
                        ],
                        [
                            21.791268,
                            49.352605
                        ],
                        [
                            21.776071,
                            49.35618
                        ],
                        [
                            21.758295,
                            49.378725
                        ],
                        [
                            21.743974,
                            49.389876
                        ],
                        [
                            21.727819,
                            49.398156
                        ],
                        [
                            21.719709,
                            49.411129
                        ],
                        [
                            21.702853,
                            49.414212
                        ],
                        [
                            21.681194,
                            49.408824
                        ],
                        [
                            21.656813,
                            49.416533
                        ],
                        [
                            21.631969,
                            49.444122
                        ],
                        [
                            21.617103,
                            49.444122
                        ],
                        [
                            21.601827,
                            49.435348
                        ],
                        [
                            21.569812,
                            49.437731
                        ],
                        [
                            21.556654,
                            49.434555
                        ],
                        [
                            21.539269,
                            49.432972
                        ],
                        [
                            21.525868,
                            49.422755
                        ],
                        [
                            21.513107,
                            49.418861
                        ]
                    ]
                ]
            },
            "properties": {}
        }
    ]
}