{
    "type": "FeatureCollection",
    "features": [
        {
            "type": "Feature",
            "geometry": {
                "type": "Polygon",
                "coordinates": [
                    [
                        [
                            20.660104,
                            49.057861
                        ],
                        [
                            20.663471,
                            49.051683
                        ],
                        [
                            20.668185,
                            49.046828
                        ],
                        [
                            20.699836,
                            49.037999
                        ],
                        [
                            20.780647,
                            49.034026
                        ],
                        [
                            20.837214,
                            49.037116
                        ],
                        [
                            20.887047,
                            49.046828
                        ],
                        [
                            20.936207,
                            49.065804
                        ],
                        [
                            20.975266,
                            49.086978
                        ],
                        [
                            21.014998,
                            49.110788
                        ],
                        [
                            21.013651,
                            49.13679
                        ],
                        [
                            21.008263,
                            49.1663
                        ],
                        [
                            20.984694,
                            49.201514
                        ],
                        [
                            20.947655,
                            49.22439
                        ],
                        [
                            20.928126,
                            49.241539
                        ],
                        [
                            20.889741,
                            49.267033
                        ],
                        [
                            20.860784,
                            49.286364
                        ],
                        [
                            20.839234,
                            49.290317
                        ],
                        [
                            20.811624,
                            49.28285
                        ],
                        [
                            20.795462,
                            49.272306
                        ],
                        [
                            20.782667,
                            49.257804
                        ],
                        [
                            20.765831,
                            49.232306
                        ],
                        [
                            20.73418,
                            49.198434
                        ],
                        [
                            20.689061,
                            49.170263
                        ],
                        [
                            20.668858,
                            49.151767
                        ],
                        [
                            20.65539,
                            49.135908
                        ],
                        [
                            20.646636,
                            49.122689
                        ],
                        [
                            20.641922,
                            49.102853
                        ],
                        [
                            20.644615,
                            49.081685
                        ],
                        [
                            20.660104,
                            49.057861
                        ]
                    ]
                ]
            },
            "properties": {}
        }
    ]
}