<kml xmlns="http://www.opengis.net/kml/2.2"><Document>
<Placemark>
<ExtendedData></ExtendedData>
  <Polygon>
<outerBoundaryIs>
  <LinearRing><coordinates>21.6569471,48.458811
21.6706663,48.4724562
21.7241711,48.5006445
21.7612129,48.5310885
21.8208913,48.553796
21.8874294,48.5578822
21.9505376,48.5615142
22.0397123,48.5615142
22.0980188,48.5628761
22.1556394,48.5447142
22.1501517,48.516096
22.1474078,48.5074619
22.1480938,48.4910986
22.1364325,48.4356058
22.1254572,48.4078367
22.0891013,48.3877971
22.0201209,48.3959833
22.0057157,48.3845954
21.9734757,48.3804952
21.9535829,48.3814064
21.9302602,48.3741164
21.9213428,48.3709267
21.9247726,48.3672811
21.9185989,48.3668253
21.9089955,48.3713824
21.8980202,48.3722937
21.8877308,48.371838
21.8781274,48.3650024
21.8719537,48.3613564
21.8644082,48.3613564
21.8561767,48.3672811
21.8287383,48.3631794
21.8314821,48.3458578
21.8280523,48.3362827
21.8205068,48.3381067
21.8040438,48.3426663
21.7937544,48.3440341
21.7772914,48.3412984
21.7628862,48.3417544
21.7279023,48.3545193
21.716241,48.3590774
21.7176129,48.3681925
21.7114393,48.370471
21.6984061,48.3864177
21.6874308,48.3905174
21.6709677,48.4014485
21.6647941,48.4246693
21.6517609,48.4469694
21.6524468,48.4537941
21.6569471,48.458811</coordinates></LinearRing></outerBoundaryIs></Polygon></Placemark></Document></kml>